start=new Date('2023-03-16T00:00:00.000Z').valueOf();
sats=[{"REV_AT_EPOCH":"17243","CLASSIFICATION_TYPE":"U","TIME_SYSTEM":"UTC","ECCENTRICITY":"0.00015430","ARG_OF_PERICENTER":"101.0654","SEMIMAJOR_AXIS":"6925.203","ELEMENT_SET_NO":"999","MEAN_MOTION_DOT":"0.00028249","GP_ID":"228204466","INCLINATION":"53.0521","FILE":"3861599","NORAD_CAT_ID":"45066","RA_OF_ASC_NODE":"120.2383","PERIOD":"95.589","DECAY_DATE":null,"BSTAR":"0.00190530000000","MEAN_ANOMALY":"259.0509","MEAN_MOTION_DDOT":"0.0000000000000","LAUNCH_DATE":"2020-01-29","OBJECT_NAME":"STARLINK-1145","APOAPSIS":"548.136","TLE_LINE2":"2 45066  53.0521 120.2383 0001543 101.0654 259.0509 15.06447529172438","EPOCH":"2023-03-15T14:17:54.516768","REF_FRAME":"TEME","COUNTRY_CODE":"US","OBJECT_ID":"2020-006Y","MEAN_MOTION":"15.06447529","TLE_LINE1":"1 45066U 20006Y   23074.59576987  .00028249  00000-0  19053-2 0  9996","CENTER_NAME":"EARTH","RCS_SIZE":"LARGE","OBJECT_TYPE":"PAYLOAD","MEAN_ELEMENT_THEORY":"SGP4","EPHEMERIS_TYPE":"0","SITE":"AFETR","PERIAPSIS":"545.999"},{"ECCENTRICITY":"0.00020190","TIME_SYSTEM":"UTC","REV_AT_EPOCH":"17247","CLASSIFICATION_TYPE":"U","ELEMENT_SET_NO":"999","MEAN_MOTION_DOT":"0.00005337","ARG_OF_PERICENTER":"80.5113","SEMIMAJOR_AXIS":"6925.282","FILE":"3861599","NORAD_CAT_ID":"45067","INCLINATION":"53.0538","GP_ID":"228205216","DECAY_DATE":null,"RA_OF_ASC_NODE":"119.2793","PERIOD":"95.591","APOAPSIS":"548.545","LAUNCH_DATE":"2020-01-29","OBJECT_NAME":"STARLINK-1150","TLE_LINE2":"2 45067  53.0538 119.2793 0002019  80.5113 279.6104 15.06421776172479","MEAN_ANOMALY":"279.6104","BSTAR":"0.00037672000000","MEAN_MOTION_DDOT":"0.0000000000000","REF_FRAME":"TEME","COUNTRY_CODE":"US","MEAN_MOTION":"15.06421776","OBJECT_ID":"2020-006Z","EPOCH":"2023-03-15T19:25:46.800480","TLE_LINE1":"1 45067U 20006Z   23074.80956945  .00005337  00000-0  37672-3 0  9998","SITE":"AFETR","PERIAPSIS":"545.749","EPHEMERIS_TYPE":"0","CENTER_NAME":"EARTH","RCS_SIZE":"LARGE","MEAN_ELEMENT_THEORY":"SGP4","OBJECT_TYPE":"PAYLOAD"},{"ELEMENT_SET_NO":"999","MEAN_MOTION_DOT":"0.00000842","ARG_OF_PERICENTER":"102.6601","SEMIMAJOR_AXIS":"6925.353","TIME_SYSTEM":"UTC","ECCENTRICITY":"0.00015450","REV_AT_EPOCH":"17247","CLASSIFICATION_TYPE":"U","DECAY_DATE":null,"RA_OF_ASC_NODE":"118.9668","PERIOD":"95.592","INCLINATION":"53.0529","FILE":"3861599","NORAD_CAT_ID":"45068","GP_ID":"228203965","COUNTRY_CODE":"US","REF_FRAME":"TEME","OBJECT_ID":"2020-006AA","MEAN_MOTION":"15.06398687","EPOCH":"2023-03-15T20:22:46.469280","LAUNCH_DATE":"2020-01-29","OBJECT_NAME":"STARLINK-1161","APOAPSIS":"548.288","TLE_LINE2":"2 45068  53.0529 118.9668 0001545 102.6601 257.4561 15.06398687172473","BSTAR":"0.00007544500000","MEAN_ANOMALY":"257.4561","MEAN_MOTION_DDOT":"0.0000000000000","EPHEMERIS_TYPE":"0","SITE":"AFETR","PERIAPSIS":"546.148","RCS_SIZE":"LARGE","CENTER_NAME":"EARTH","MEAN_ELEMENT_THEORY":"SGP4","OBJECT_TYPE":"PAYLOAD","TLE_LINE1":"1 45068U 20006AA  23074.84914895  .00000842  00000-0  75445-4 0  9998"},{"TLE_LINE1":"1 45071U 20006AD  23074.84273226  .00016195  00000-0  11033-2 0  9997","EPHEMERIS_TYPE":"0","SITE":"AFETR","PERIAPSIS":"545.904","MEAN_ELEMENT_THEORY":"SGP4","OBJECT_TYPE":"PAYLOAD","CENTER_NAME":"EARTH","RCS_SIZE":"LARGE","TLE_LINE2":"2 45071  53.0543 119.1277 0001842  72.3712 287.7478 15.06411154172476","OBJECT_NAME":"STARLINK-1167","LAUNCH_DATE":"2020-01-29","APOAPSIS":"548.455","MEAN_MOTION_DDOT":"0.0000000000000","BSTAR":"0.00110330000000","MEAN_ANOMALY":"287.7478","OBJECT_ID":"2020-006AD","MEAN_MOTION":"15.06411154","REF_FRAME":"TEME","COUNTRY_CODE":"US","EPOCH":"2023-03-15T20:13:32.067264","INCLINATION":"53.0543","FILE":"3861599","NORAD_CAT_ID":"45071","GP_ID":"228203716","DECAY_DATE":null,"PERIOD":"95.591","RA_OF_ASC_NODE":"119.1277","TIME_SYSTEM":"UTC","ECCENTRICITY":"0.00018420","CLASSIFICATION_TYPE":"U","REV_AT_EPOCH":"17247","MEAN_MOTION_DOT":"0.00016195","ELEMENT_SET_NO":"999","SEMIMAJOR_AXIS":"6925.314","ARG_OF_PERICENTER":"72.3712"},{"CENTER_NAME":"EARTH","RCS_SIZE":"LARGE","MEAN_ELEMENT_THEORY":"SGP4","OBJECT_TYPE":"PAYLOAD","SITE":"AFETR","PERIAPSIS":"546.173","EPHEMERIS_TYPE":"0","TLE_LINE1":"1 45072U 20006AE  23074.84641829  .00005834  00000-0  41012-3 0  9995","EPOCH":"2023-03-15T20:18:50.540256","COUNTRY_CODE":"US","REF_FRAME":"TEME","OBJECT_ID":"2020-006AE","MEAN_MOTION":"15.06408784","MEAN_ANOMALY":"283.8562","BSTAR":"0.00041012000000","MEAN_MOTION_DDOT":"0.0000000000000","APOAPSIS":"548.201","OBJECT_NAME":"STARLINK-1168","LAUNCH_DATE":"2020-01-29","TLE_LINE2":"2 45072  53.0523 119.1144 0001464  76.2590 283.8562 15.06408784172471","RA_OF_ASC_NODE":"119.1144","PERIOD":"95.592","DECAY_DATE":null,"GP_ID":"228204966","NORAD_CAT_ID":"45072","FILE":"3861599","INCLINATION":"53.0523","ARG_OF_PERICENTER":"76.2590","SEMIMAJOR_AXIS":"6925.322","ELEMENT_SET_NO":"999","MEAN_MOTION_DOT":"0.00005834","REV_AT_EPOCH":"17247","CLASSIFICATION_TYPE":"U","ECCENTRICITY":"0.00014640","TIME_SYSTEM":"UTC"},{"ELEMENT_SET_NO":"999","MEAN_MOTION_DOT":"0.00032021","SEMIMAJOR_AXIS":"6925.141","ARG_OF_PERICENTER":"83.5927","TIME_SYSTEM":"UTC","ECCENTRICITY":"0.00017660","REV_AT_EPOCH":"17240","CLASSIFICATION_TYPE":"U","DECAY_DATE":null,"RA_OF_ASC_NODE":"121.0837","PERIOD":"95.588","INCLINATION":"53.0537","NORAD_CAT_ID":"45073","FILE":"3861350","GP_ID":"228146319","REF_FRAME":"TEME","COUNTRY_CODE":"US","OBJECT_ID":"2020-006AF","MEAN_MOTION":"15.06467640","EPOCH":"2023-03-15T09:47:14.092800","LAUNCH_DATE":"2020-01-29","OBJECT_NAME":"STARLINK-1170","APOAPSIS":"548.229","TLE_LINE2":"2 45073  53.0537 121.0837 0001766  83.5927 276.5263 15.06467640172404","BSTAR":"0.00215490000000","MEAN_ANOMALY":"276.5263","MEAN_MOTION_DDOT":"0.0000000000000","EPHEMERIS_TYPE":"0","SITE":"AFETR","PERIAPSIS":"545.783","CENTER_NAME":"EARTH","RCS_SIZE":"LARGE","OBJECT_TYPE":"PAYLOAD","MEAN_ELEMENT_THEORY":"SGP4","TLE_LINE1":"1 45073U 20006AF  23074.40780200  .00032021  00000-0  21549-2 0  9995"},{"CLASSIFICATION_TYPE":"U","REV_AT_EPOCH":"17247","ECCENTRICITY":"0.00011910","TIME_SYSTEM":"UTC","SEMIMAJOR_AXIS":"6925.355","ARG_OF_PERICENTER":"85.0336","MEAN_MOTION_DOT":"-0.00008603","ELEMENT_SET_NO":"999","GP_ID":"228203466","FILE":"3861599","NORAD_CAT_ID":"45074","INCLINATION":"53.0516","PERIOD":"95.592","RA_OF_ASC_NODE":"119.0635","DECAY_DATE":null,"MEAN_MOTION_DDOT":"0.0000000000000","MEAN_ANOMALY":"275.0789","BSTAR":"-0.00055939000000","TLE_LINE2":"2 45074  53.0516 119.0635 0001191  85.0336 275.0789 15.06398057172477","APOAPSIS":"548.044","OBJECT_NAME":"STARLINK-1172","LAUNCH_DATE":"2020-01-29","EPOCH":"2023-03-15T20:34:46.647840","OBJECT_ID":"2020-006AG","MEAN_MOTION":"15.06398057","REF_FRAME":"TEME","COUNTRY_CODE":"US","TLE_LINE1":"1 45074U 20006AG  23074.85748435 -.00008603  00000-0 -55939-3 0  9991","OBJECT_TYPE":"PAYLOAD","MEAN_ELEMENT_THEORY":"SGP4","CENTER_NAME":"EARTH","RCS_SIZE":"LARGE","PERIAPSIS":"546.395","SITE":"AFETR","EPHEMERIS_TYPE":"0"},{"MEAN_MOTION_DOT":"-0.00001314","ELEMENT_SET_NO":"999","ARG_OF_PERICENTER":"98.0052","SEMIMAJOR_AXIS":"6925.356","TIME_SYSTEM":"UTC","ECCENTRICITY":"0.00014450","CLASSIFICATION_TYPE":"U","REV_AT_EPOCH":"17247","DECAY_DATE":null,"PERIOD":"95.592","RA_OF_ASC_NODE":"119.2119","INCLINATION":"53.0527","FILE":"3861599","NORAD_CAT_ID":"45075","GP_ID":"228204216","OBJECT_ID":"2020-006AH","MEAN_MOTION":"15.06397560","COUNTRY_CODE":"US","REF_FRAME":"TEME","EPOCH":"2023-03-15T19:46:59.928672","TLE_LINE2":"2 45075  53.0527 119.2119 0001445  98.0052 262.1100 15.06397560172472","OBJECT_NAME":"STARLINK-1174","LAUNCH_DATE":"2020-01-29","APOAPSIS":"548.222","MEAN_MOTION_DDOT":"0.0000000000000","BSTAR":"-0.00006933200000","MEAN_ANOMALY":"262.1100","EPHEMERIS_TYPE":"0","PERIAPSIS":"546.220","SITE":"AFETR","OBJECT_TYPE":"PAYLOAD","MEAN_ELEMENT_THEORY":"SGP4","RCS_SIZE":"LARGE","CENTER_NAME":"EARTH","TLE_LINE1":"1 45075U 20006AH  23074.82430473 -.00001314  00000-0 -69332-4 0  9994"},{"PERIOD":"95.593","RA_OF_ASC_NODE":"119.1733","DECAY_DATE":null,"GP_ID":"228204467","INCLINATION":"53.0527","NORAD_CAT_ID":"45076","FILE":"3861599","SEMIMAJOR_AXIS":"6925.370","ARG_OF_PERICENTER":"92.4509","MEAN_MOTION_DOT":"0.00010301","ELEMENT_SET_NO":"999","CLASSIFICATION_TYPE":"U","REV_AT_EPOCH":"17247","TIME_SYSTEM":"UTC","ECCENTRICITY":"0.00019630","OBJECT_TYPE":"PAYLOAD","MEAN_ELEMENT_THEORY":"SGP4","CENTER_NAME":"EARTH","RCS_SIZE":"LARGE","EPHEMERIS_TYPE":"0","SITE":"AFETR","PERIAPSIS":"545.876","TLE_LINE1":"1 45076U 20006AJ  23074.83073855  .00010301  00000-0  70954-3 0  9998","EPOCH":"2023-03-15T19:56:15.810720","OBJECT_ID":"2020-006AJ","MEAN_MOTION":"15.06393004","COUNTRY_CODE":"US","REF_FRAME":"TEME","MEAN_MOTION_DDOT":"0.0000000000000","BSTAR":"0.00070954000000","MEAN_ANOMALY":"267.6705","TLE_LINE2":"2 45076  53.0527 119.1733 0001963  92.4509 267.6705 15.06393004172474","LAUNCH_DATE":"2020-01-29","OBJECT_NAME":"STARLINK-1180","APOAPSIS":"548.594"},{"LAUNCH_DATE":"2020-01-29","OBJECT_NAME":"STARLINK-1177","APOAPSIS":"548.442","TLE_LINE2":"2 45078  53.0512 119.0968 0001883  87.7260 272.3945 15.06424500172465","BSTAR":"-0.00008231800000","MEAN_ANOMALY":"272.3945","MEAN_MOTION_DDOT":"0.0000000000000","REF_FRAME":"TEME","COUNTRY_CODE":"US","OBJECT_ID":"2020-006AL","MEAN_MOTION":"15.06424500","EPOCH":"2023-03-15T20:24:09.968832","TLE_LINE1":"1 45078U 20006AL  23074.85011538 -.00001508  00000-0 -82318-4 0  9991","EPHEMERIS_TYPE":"0","PERIAPSIS":"545.834","SITE":"AFETR","CENTER_NAME":"EARTH","RCS_SIZE":"LARGE","MEAN_ELEMENT_THEORY":"SGP4","OBJECT_TYPE":"PAYLOAD","TIME_SYSTEM":"UTC","ECCENTRICITY":"0.00018830","REV_AT_EPOCH":"17246","CLASSIFICATION_TYPE":"U","ELEMENT_SET_NO":"999","MEAN_MOTION_DOT":"-0.00001508","ARG_OF_PERICENTER":"87.7260","SEMIMAJOR_AXIS":"6925.273","INCLINATION":"53.0512","FILE":"3861599","NORAD_CAT_ID":"45078","GP_ID":"228205217","DECAY_DATE":null,"RA_OF_ASC_NODE":"119.0968","PERIOD":"95.591"}];
